{
    "links": {
        "self": "http://www.neowsapp.com/rest/v1/neo/3949007?api_key=iIulBulltgU6a56xZRHN4H3l9WmuAYTsLGpBGhQ2"
    },
    "id": "3949007",
    "neo_reference_id": "3949007",
    "name": "(2019 GL23)",
    "designation": "2019 GL23",
    "nasa_jpl_url": "http://ssd.jpl.nasa.gov/sbdb.cgi?sstr=3949007",
    "absolute_magnitude_h": 27.5,
    "estimated_diameter": {
        "kilometers": {
            "estimated_diameter_min": 0.008405334,
            "estimated_diameter_max": 0.0187948982
        },
        "meters": {
            "estimated_diameter_min": 8.4053340207,
            "estimated_diameter_max": 18.7948982439
        },
        "miles": {
            "estimated_diameter_min": 0.0052228308,
            "estimated_diameter_max": 0.0116786047
        },
        "feet": {
            "estimated_diameter_min": 27.5765560686,
            "estimated_diameter_max": 61.6630539546
        }
    },
    "is_potentially_hazardous_asteroid": false,
    "close_approach_data": [
        {
            "close_approach_date": "2019-04-14",
            "close_approach_date_full": "2019-Apr-14 00:23",
            "epoch_date_close_approach": 1555201380000,
            "relative_velocity": {
                "kilometers_per_second": "7.0369876481",
                "kilometers_per_hour": "25333.1555332999",
                "miles_per_hour": "15741.0376701218"
            },
            "miss_distance": {
                "astronomical": "0.0206085117",
                "lunar": "8.0167110513",
                "kilometers": "3082989.454190079",
                "miles": "1915680.8155339302"
            },
            "orbiting_body": "Earth"
        }
    ],
    "orbital_data": {
        "orbit_id": "1",
        "orbit_determination_date": "2019-12-26 09:12:04",
        "first_observation_date": "2019-04-11",
        "last_observation_date": "2019-04-11",
        "data_arc_in_days": null,
        "observations_used": 16,
        "orbit_uncertainty": "8",
        "minimum_orbit_intersection": ".0173209",
        "jupiter_tisserand_invariant": "3.829",
        "epoch_osculation": "2458584.5",
        "eccentricity": ".4605457255037669",
        "semi_major_axis": "1.881568681033489",
        "inclination": "4.701601583009119",
        "ascending_node_longitude": "20.62561327159382",
        "orbital_period": "942.7109252263119",
        "perihelion_distance": "1.015020267741755",
        "perihelion_argument": "194.7865289678576",
        "aphelion_distance": "2.748117094325222",
        "perihelion_time": "2458597.399687234443",
        "mean_anomaly": "355.0739009381008",
        "mean_motion": ".3818774031006129",
        "equinox": "J2000",
        "orbit_class": {
            "orbit_class_type": "APO",
            "orbit_class_description": "Near-Earth asteroid orbits which cross the Earth’s orbit similar to that of 1862 Apollo",
            "orbit_class_range": "a (semi-major axis) > 1.0 AU; q (perihelion) < 1.017 AU"
        }
    },
    "is_sentry_object": false
}